GLOBALSTAR M068 [-]     
1 32266U 07048D   24070.35455525 -.00000057  00000+0  25791-3 0  9994
2 32266  51.9872 276.1255 0001002 139.3541  31.6621 12.62781507758952
GLOBALSTAR M079 [+]     
1 37188U 10054A   24070.49418383 -.00000074  00000+0  16382-3 0  9994
2 37188  52.0028 111.3420 0000408  85.0224  61.5690 12.62267302617890
GLOBALSTAR M074 [+]     
1 37189U 10054B   24070.60557638 -.00000073  00000+0  17047-3 0  9993
2 37189  52.0006 110.3982 0000490 120.8350  51.7143 12.62266150618512
GLOBALSTAR M076 [+]     
1 37190U 10054C   24070.35952771 -.00000069  00000+0  19223-3 0  9997
2 37190  52.0018 111.2769 0000877  88.2117 285.2024 12.62275384618204
GLOBALSTAR M077 [+]     
1 37191U 10054D   24070.28733126 -.00000101  00000+0  15815-4 0  9992
2 37191  52.0068  68.2173 0000433 106.9654 358.0119 12.62270157618568
GLOBALSTAR M075 [+]     
1 37192U 10054E   24070.53110410 -.00000076  00000+0  15224-3 0  9990
2 37192  51.9937 153.2699 0000514 105.9730 267.3952 12.62271441617455
GLOBALSTAR M073 [+]     
1 37193U 10054F   24070.48661970 -.00000098  00000+0  31335-4 0  9993
2 37193  52.0057  66.8657 0000454  87.3834  85.1919 12.62262444619279
GLOBALSTAR M083 [+]     
1 37739U 11033A   24070.57863961 -.00000091  00000+0  71102-4 0  9990
2 37739  51.9885  15.9521 0000269  55.0835 115.6646 12.62266313588308
GLOBALSTAR M088 [+]     
1 37740U 11033B   24070.60142841 -.00000074  00000+0  16872-3 0  9996
2 37740  51.9723 281.7669 0000677  71.2132 323.6994 12.62265911583855
GLOBALSTAR M091 [+]     
1 37741U 11033C   24070.24856512 -.00000099  00000+0  27135-4 0  9996
2 37741  51.9976 245.5648 0000627  77.0614  93.7162 12.62272263584597
GLOBALSTAR M085 [+]     
1 37742U 11033D   24070.59729244 -.00000104  00000+0  11868-5 0  9990
2 37742  51.9853 195.9523 0000528  97.6452 277.8373 12.62268415585156
GLOBALSTAR M081 [+]     
1 37743U 11033E   24070.62538484 -.00000114  00000+0 -58634-4 0  9992
2 37743  51.9943 198.3668 0000651  81.5371 302.2211 12.62270381585309
GLOBALSTAR M089 [+]     
1 37744U 11033F   24070.52455501 -.00000082  00000+0  12247-3 0  9992
2 37744  51.9920 152.9911 0000986 100.2813   4.0536 12.62272056586133
GLOBALSTAR M084 [+]     
1 38040U 11080A   24070.63448189 -.00000097  00000+0  38184-4 0  9995
2 38040  52.0035  19.6956 0000721  89.0955  95.5189 12.62271743564124
GLOBALSTAR M080 [+]     
1 38041U 11080B   24070.60780622 -.00000104  00000+0 -19418-5 0  9994
2 38041  52.0084  21.2219 0000892  79.1003 103.4186 12.62269620564243
GLOBALSTAR M082 [+]     
1 38042U 11080C   24070.22133284 -.00000067  00000+0  20470-3 0  9994
2 38042  52.0100 337.7984 0000029  94.8380  70.8465 12.62266591565074
GLOBALSTAR M092 [+]     
1 38043U 11080D   24070.24067007 -.00000111  00000+0 -43065-4 0  9993
2 38043  52.0087  68.0887 0000530 120.1441 252.9322 12.62276788563367
GLOBALSTAR M090 [+]     
1 38044U 11080E   24070.48644767 -.00000063  00000+0  22991-3 0  9993
2 38044  51.9908 331.3961 0000386  66.5568 105.4803 12.62266929565059
GLOBALSTAR M086 [+]     
1 38045U 11080F   24070.43359581 -.00000071  00000+0  18440-3 0  9999
2 38045  51.9918 332.0731 0001368  36.0988 135.0342 12.62268067564997
GLOBALSTAR M097 [+]     
1 39072U 13005A   24070.42237328 -.00000099  00000+0  27659-4 0  9995
2 39072  52.0026 246.1812 0000682  75.5788 284.5154 12.62261673512247
GLOBALSTAR M093 [+]     
1 39073U 13005B   24070.47500109 -.00000105  00000+0 -42093-5 0  9990
2 39073  51.9788 240.0653 0000635  71.0125 289.0810 12.62261981512208
GLOBALSTAR M094 [+]     
1 39074U 13005C   24070.47505882 -.00000079  00000+0  13918-3 0  9995
2 39074  51.9949 153.9837 0000439  97.7797 262.3120 12.62263468513814
GLOBALSTAR M096 [+]     
1 39075U 13005D   24070.56740124 -.00000110  00000+0 -33686-4 0  9998
2 39075  52.0058 201.8538 0000563  84.7242 275.3689 12.62273293512740
GLOBALSTAR M078 [+]     
1 39076U 13005E   24070.30391756 -.00000078  00000+0  14396-3 0  9992
2 39076  51.9867 287.8029 0000543 186.2987 173.7873 12.62261124511338
GLOBALSTAR M095 [+]     
1 39077U 13005F   24070.32980527 -.00000073  00000+0  16984-3 0  9995
2 39077  51.9791 285.1474 0000181  58.9385 301.1499 12.62264427511199
GLOBALSTAR M087 [+]     
1 52888U 22064A   24070.62390061 -.00000107  00000+0  40523-4 0  9991
2 52888  51.9746 192.0648 0010186 113.7292 246.4678 13.37566998 84338
